OBJECT_NAME,OBJECT_ID,EPOCH,MEAN_MOTION,ECCENTRICITY,INCLINATION,RA_OF_ASC_NODE,ARG_OF_PERICENTER,MEAN_ANOMALY,EPHEMERIS_TYPE,CLASSIFICATION_TYPE,NORAD_CAT_ID,ELEMENT_SET_NO,REV_AT_EPOCH,BSTAR,MEAN_MOTION_DOT,MEAN_MOTION_DDOT
TJS-7,2021-077A,2026-06-30T15:18:50.503392,1.00271526,.0003522,0.3218,264.6235,115.5538,28.7811,0,U,49115,999,968,0,-.113E-5,0
CHINASAT 9B,2021-080A,2026-06-30T20:01:38.718624,1.00266470,.0002566,0.0181,28.2061,92.1690,200.3288,0,U,49125,999,1778,0,0,0
SHIJIAN-21 (SJ-21),2021-094A,2026-06-30T16:38:34.989792,1.00264845,.0049662,5.1432,61.1029,168.0036,67.1489,0,U,49330,999,549,0,-.341E-5,0
SES-17,2021-095A,2026-06-30T13:45:22.175712,1.00269366,.000123,0.0242,41.4677,56.2884,320.1217,0,U,49332,999,1798,0,-.261E-5,0
SYRACUSE 4A,2021-095B,2026-06-29T21:39:57.150720,1.00272290,.00016465,0.0263,31.7327,73.4859,183.2630,0,U,49333,999,1807,0,0,0
QZS-1R (MICHIBIKI-1R),2021-096A,2026-06-30T14:39:30.672288,1.00251640,.0755934,37.4875,79.3848,272.0246,280.1673,0,U,49336,999,1714,0,-.286E-5,0
ZHONGXING-1D,2021-114A,2026-06-30T16:24:20.071296,1.00270671,.0000655,0.0408,115.1223,53.7346,126.1597,0,U,49505,999,1695,0,-.326E-5,0
STPSAT-6,2021-118A,2026-06-30T14:26:22.579008,1.00270753,.0000955,0.3539,85.2856,271.7372,26.5307,0,U,49817,999,1670,0,-.35E-6,0
EXPRESS AMU-7,2021-123A,2026-06-30T19:53:50.595648,1.00273650,.0000535,0.0286,281.3712,128.6839,312.2922,0,U,50001,999,1667,0,-.232E-5,0
EXPRESS AMU-3,2021-123B,2026-06-29T22:36:26.749728,1.00278298,.00010852,0.0197,341.0992,8.1661,10.7324,0,U,50002,999,716,0,0,0
TIANLIAN 2-02,2021-124A,2026-06-30T12:47:53.744352,1.00273312,.00008034,0.8353,85.9352,182.4162,13.2038,0,U,50005,999,1675,0,-.4E-7,0
TURKSAT 5B,2021-126A,2026-06-30T02:17:53.858400,1.00273637,.00029344,0.0695,338.5766,27.5791,348.4830,0,U,50212,999,1642,0,.157E-5,0
INMARSAT 6-F1,2021-128A,2026-06-29T19:24:07.019712,1.00272072,.00004026,0.0154,305.4737,166.0880,181.1170,0,U,50319,999,1638,0,-.161E-5,0
SHIYAN-12 01 (SY-12 01),2021-129A,2026-06-30T10:53:12.506208,1.00045304,.0003032,3.7071,79.7386,294.5079,116.7187,0,U,50321,999,1663,0,.143E-5,0
SHIYAN-12 02 (SY-12 02),2021-129B,2026-06-30T17:22:21.775296,1.00485451,.0003107,3.7070,79.7376,57.7428,141.3373,0,U,50322,999,1663,0,-.32E-5,0
TJS-9,2021-135A,2026-06-30T19:51:43.300800,1.00269500,.0003779,0.0159,42.1561,21.4738,290.4263,0,U,50574,999,1656,0,0,0
USA 324,2022-006A,2026-06-06T02:06:38.886912,1.00289779,.000284,0.7690,83.2777,165.6787,110.1567,0,U,51280,999,1602,0,-.58E-6,0
GOES 18,2022-021A,2026-06-30T18:33:28.279008,1.00271074,.0000539,0.0105,94.5169,39.6641,286.0207,0,U,51850,999,672,0,.107E-5,0
ZHONGXING-6D,2022-038A,2026-06-29T21:07:53.668128,1.00272971,.00003959,0.0165,74.2009,122.3414,163.4517,0,U,52255,999,1555,0,-.343E-5,0
NILESAT 301,2022-061A,2026-06-30T17:27:54.099072,1.00273029,.0004721,0.0450,4.0409,58.8839,110.8551,0,U,52817,999,1487,0,-.47E-6,0
CMS-02 (GSAT-24),2022-067A,2026-06-29T04:14:58.480800,1.00271288,.0001521,0.0351,252.6973,130.3221,40.9976,0,U,52903,999,1472,0,-.153E-5,0
MEASAT 3D,2022-067B,2026-06-30T19:49:21.525312,1.00271696,.00007,0.0370,321.7509,102.7364,243.2609,0,U,52904,999,1478,0,-.231E-5,0
SES-22,2022-071A,2026-06-30T16:50:17.583360,1.00271930,.0001314,0.0177,11.0684,80.7890,300.4685,0,U,52933,999,765,0,.115E-5,0
WFOV (USA 332),2022-073A,2026-06-30T12:55:57.381312,1.00268758,.0001611,3.7434,78.3653,259.0937,254.3836,0,U,52940,999,1450,0,-.354E-5,0
TIANLIAN 2-03,2022-078A,2026-06-30T19:15:22.805856,1.00272526,.000101,0.7052,77.2808,343.3162,157.6670,0,U,53100,999,1468,0,.82E-6,0
SBIRS GEO-6 (USA 336),2022-092A,2026-06-30T19:52:13.253088,1.00271659,.0002207,3.2351,317.7022,137.0258,261.2268,0,U,53355,999,1437,0,-.278E-5,0
EUTELSAT KONNECT VHTS,2022-110A,2026-06-30T00:24:03.578112,1.00273337,.00031676,0.0618,99.4995,349.5466,197.7835,0,U,53765,999,696,0,.28E-6,0
ZHONGXING-1E,2022-112A,2026-06-30T14:27:46.798272,1.00271554,.0000107,0.0410,153.7791,110.2484,313.0045,0,U,53813,999,1398,0,-.139E-5,0
SES-20,2022-123A,2026-06-30T14:22:23.676096,1.00269721,.0002167,0.0202,59.4918,39.9780,291.6770,0,U,53960,999,1366,0,-.9E-6,0
SES-21,2022-123B,2026-06-29T23:46:01.641792,1.00268246,.00008865,0.0399,24.7137,72.6667,46.2618,0,U,53961,999,734,0,0,0
GALAXY 33 (G-33),2022-128A,2026-06-30T16:51:54.925920,1.00272821,.0002071,0.0151,14.5426,82.5209,301.6861,0,U,54026,999,1387,0,.89E-6,0
GALAXY 34 (G-34),2022-128B,2026-06-30T16:53:02.318784,1.00274607,.0001919,0.0275,18.0703,90.3855,294.5804,0,U,54027,999,1404,0,0,0
